[{"OBJECT_NAME":"BEIDOU-3 M17 (C36)","OBJECT_ID":"2018-093A","EPOCH":"2026-03-10T12:31:53.319360","MEAN_MOTION":1.86228516,"ECCENTRICITY":0.00072315,"INCLINATION":54.1708,"RA_OF_ASC_NODE":185.6435,"ARG_OF_PERICENTER":296.136,"MEAN_ANOMALY":71.6984,"EPHEMERIS_TYPE":0,"CLASSIFICATION_TYPE":"U","NORAD_CAT_ID":43706,"ELEMENT_SET_NO":999,"REV_AT_EPOCH":4970,"BSTAR":0,"MEAN_MOTION_DOT":2.0e-8,"MEAN_MOTION_DDOT":0},{"OBJECT_NAME":"BEIDOU-3 M18 (C37)","OBJECT_ID":"2018-093B","EPOCH":"2026-03-12T12:29:38.226048","MEAN_MOTION":1.86226619,"ECCENTRICITY":0.00061101,"INCLINATION":54.172,"RA_OF_ASC_NODE":185.5676,"ARG_OF_PERICENTER":338.6816,"MEAN_ANOMALY":21.2791,"EPHEMERIS_TYPE":0,"CLASSIFICATION_TYPE":"U","NORAD_CAT_ID":43707,"ELEMENT_SET_NO":999,"REV_AT_EPOCH":4973,"BSTAR":0,"MEAN_MOTION_DOT":-1.1e-7,"MEAN_MOTION_DDOT":0},{"OBJECT_NAME":"BEIDOU-3 IGSO-1 (C38)","OBJECT_ID":"2019-023A","EPOCH":"2026-03-14T19:20:13.292160","MEAN_MOTION":1.00268038,"ECCENTRICITY":0.00255758,"INCLINATION":58.5685,"RA_OF_ASC_NODE":38.6206,"ARG_OF_PERICENTER":236.0412,"MEAN_ANOMALY":306.7281,"EPHEMERIS_TYPE":0,"CLASSIFICATION_TYPE":"U","NORAD_CAT_ID":44204,"ELEMENT_SET_NO":999,"REV_AT_EPOCH":626,"BSTAR":0,"MEAN_MOTION_DOT":-1.86e-6,"MEAN_MOTION_DDOT":0},{"OBJECT_NAME":"BEIDOU-2 G8 (C01)","OBJECT_ID":"2019-027A","EPOCH":"2026-03-14T22:53:15.364320","MEAN_MOTION":1.00273625,"ECCENTRICITY":0.00114845,"INCLINATION":1.4178,"RA_OF_ASC_NODE":74.26,"ARG_OF_PERICENTER":274.9672,"MEAN_ANOMALY":311.1519,"EPHEMERIS_TYPE":0,"CLASSIFICATION_TYPE":"U","NORAD_CAT_ID":44231,"ELEMENT_SET_NO":999,"REV_AT_EPOCH":2513,"BSTAR":0,"MEAN_MOTION_DOT":-2.47e-6,"MEAN_MOTION_DDOT":0},{"OBJECT_NAME":"BEIDOU-3 IGSO-2 (C39)","OBJECT_ID":"2019-035A","EPOCH":"2026-02-26T16:31:51.989952","MEAN_MOTION":1.00247364,"ECCENTRICITY":0.00387345,"INCLINATION":55.2338,"RA_OF_ASC_NODE":159.8353,"ARG_OF_PERICENTER":206.4752,"MEAN_ANOMALY":153.7223,"EPHEMERIS_TYPE":0,"CLASSIFICATION_TYPE":"U","NORAD_CAT_ID":44337,"ELEMENT_SET_NO":999,"REV_AT_EPOCH":2456,"BSTAR":0,"MEAN_MOTION_DOT":-1.76e-6,"MEAN_MOTION_DDOT":0},{"OBJECT_NAME":"BEIDOU-3 M24 (C46)","OBJECT_ID":"2019-061A","EPOCH":"2026-03-14T04:49:54.155136","MEAN_MOTION":1.862291,"ECCENTRICITY":0.00084889,"INCLINATION":54.3984,"RA_OF_ASC_NODE":185.9306,"ARG_OF_PERICENTER":19.2225,"MEAN_ANOMALY":340.7928,"EPHEMERIS_TYPE":0,"CLASSIFICATION_TYPE":"U","NORAD_CAT_ID":44542,"ELEMENT_SET_NO":999,"REV_AT_EPOCH":4402,"BSTAR":0,"MEAN_MOTION_DOT":-1.3e-7,"MEAN_MOTION_DDOT":0},{"OBJECT_NAME":"BEIDOU-3 M23 (C45)","OBJECT_ID":"2019-061B","EPOCH":"2026-03-14T10:50:42.842400","MEAN_MOTION":1.86227431,"ECCENTRICITY":0.00049236,"INCLINATION":54.397,"RA_OF_ASC_NODE":185.8909,"ARG_OF_PERICENTER":10.3958,"MEAN_ANOMALY":69.7972,"EPHEMERIS_TYPE":0,"CLASSIFICATION_TYPE":"U","NORAD_CAT_ID":44543,"ELEMENT_SET_NO":999,"REV_AT_EPOCH":4403,"BSTAR":0,"MEAN_MOTION_DOT":-1.2e-7,"MEAN_MOTION_DDOT":0},{"OBJECT_NAME":"BEIDOU-3 IGSO-3 (C40)","OBJECT_ID":"2019-073A","EPOCH":"2026-03-10T23:36:11.529792","MEAN_MOTION":1.00267242,"ECCENTRICITY":0.00407281,"INCLINATION":54.9673,"RA_OF_ASC_NODE":281.9576,"ARG_OF_PERICENTER":188.7089,"MEAN_ANOMALY":171.2538,"EPHEMERIS_TYPE":0,"CLASSIFICATION_TYPE":"U","NORAD_CAT_ID":44709,"ELEMENT_SET_NO":999,"REV_AT_EPOCH":2347,"BSTAR":0,"MEAN_MOTION_DOT":-1.43e-6,"MEAN_MOTION_DDOT":0},{"OBJECT_NAME":"BEIDOU-3 M22 (C44)","OBJECT_ID":"2019-078A","EPOCH":"2026-03-14T00:58:20.373312","MEAN_MOTION":1.8623232,"ECCENTRICITY":0.00074654,"INCLINATION":54.0216,"RA_OF_ASC_NODE":303.1765,"ARG_OF_PERICENTER":38.197,"MEAN_ANOMALY":321.912,"EPHEMERIS_TYPE":0,"CLASSIFICATION_TYPE":"U","NORAD_CAT_ID":44793,"ELEMENT_SET_NO":999,"REV_AT_EPOCH":4287,"BSTAR":0,"MEAN_MOTION_DOT":-1.9e-7,"MEAN_MOTION_DDOT":0},{"OBJECT_NAME":"BEIDOU-3 M21 (C43)","OBJECT_ID":"2019-078B","EPOCH":"2026-03-12T00:46:41.649600","MEAN_MOTION":1.86227925,"ECCENTRICITY":0.0005425,"INCLINATION":53.9966,"RA_OF_ASC_NODE":303.2101,"ARG_OF_PERICENTER":33.1471,"MEAN_ANOMALY":326.9381,"EPHEMERIS_TYPE":0,"CLASSIFICATION_TYPE":"U","NORAD_CAT_ID":44794,"ELEMENT_SET_NO":999,"REV_AT_EPOCH":4284,"BSTAR":0,"MEAN_MOTION_DOT":-3.2e-7,"MEAN_MOTION_DDOT":0},{"OBJECT_NAME":"BEIDOU-3 M19 (C41)","OBJECT_ID":"2019-090A","EPOCH":"2026-03-13T01:56:30.031296","MEAN_MOTION":1.8623174,"ECCENTRICITY":0.00205462,"INCLINATION":56.4754,"RA_OF_ASC_NODE":65.9655,"ARG_OF_PERICENTER":291.691,"MEAN_ANOMALY":247.8851,"EPHEMERIS_TYPE":0,"CLASSIFICATION_TYPE":"U","NORAD_CAT_ID":44864,"ELEMENT_SET_NO":999,"REV_AT_EPOCH":4244,"BSTAR":0,"MEAN_MOTION_DOT":1.1e-7,"MEAN_MOTION_DDOT":0},{"OBJECT_NAME":"BEIDOU-3 M20 (C42)","OBJECT_ID":"2019-090B","EPOCH":"2026-03-14T07:15:32.481792","MEAN_MOTION":1.86231612,"ECCENTRICITY":0.00178692,"INCLINATION":56.478,"RA_OF_ASC_NODE":65.96,"ARG_OF_PERICENTER":303.3279,"MEAN_ANOMALY":64.8469,"EPHEMERIS_TYPE":0,"CLASSIFICATION_TYPE":"U","NORAD_CAT_ID":44865,"ELEMENT_SET_NO":999,"REV_AT_EPOCH":4245,"BSTAR":0,"MEAN_MOTION_DOT":1.9e-7,"MEAN_MOTION_DDOT":0},{"OBJECT_NAME":"BEIDOU-3 G2 (C60)","OBJECT_ID":"2020-017A","EPOCH":"2026-03-14T22:34:54.623136","MEAN_MOTION":1.00272381,"ECCENTRICITY":0.00027339,"INCLINATION":2.6743,"RA_OF_ASC_NODE":45.7536,"ARG_OF_PERICENTER":323.3562,"MEAN_ANOMALY":222.2179,"EPHEMERIS_TYPE":0,"CLASSIFICATION_TYPE":"U","NORAD_CAT_ID":45344,"ELEMENT_SET_NO":999,"REV_AT_EPOCH":2231,"BSTAR":0,"MEAN_MOTION_DOT":-1.39e-6,"MEAN_MOTION_DDOT":0},{"OBJECT_NAME":"BEIDOU-3 G3 (C61)","OBJECT_ID":"2020-040A","EPOCH":"2026-03-14T22:43:31.296864","MEAN_MOTION":1.00270508,"ECCENTRICITY":0.00048394,"INCLINATION":2.2142,"RA_OF_ASC_NODE":67.1491,"ARG_OF_PERICENTER":325.3883,"MEAN_ANOMALY":231.4219,"EPHEMERIS_TYPE":0,"CLASSIFICATION_TYPE":"U","NORAD_CAT_ID":45807,"ELEMENT_SET_NO":999,"REV_AT_EPOCH":2112,"BSTAR":0,"MEAN_MOTION_DOT":-3.53e-6,"MEAN_MOTION_DDOT":0},{"OBJECT_NAME":"BEIDOU-3 G4 (C62)","OBJECT_ID":"2023-066A","EPOCH":"2026-03-13T04:10:32.176992","MEAN_MOTION":1.00272296,"ECCENTRICITY":0.00026474,"INCLINATION":0.6336,"RA_OF_ASC_NODE":312.1088,"ARG_OF_PERICENTER":153.4351,"MEAN_ANOMALY":287.9442,"EPHEMERIS_TYPE":0,"CLASSIFICATION_TYPE":"U","NORAD_CAT_ID":56564,"ELEMENT_SET_NO":999,"REV_AT_EPOCH":1043,"BSTAR":0,"MEAN_MOTION_DOT":-1.11e-6,"MEAN_MOTION_DDOT":0},{"OBJECT_NAME":"BEIDOU-3 M28 (C50)","OBJECT_ID":"2023-207A","EPOCH":"2026-03-13T17:17:53.810880","MEAN_MOTION":1.86229773,"ECCENTRICITY":0.00049774,"INCLINATION":55.6694,"RA_OF_ASC_NODE":65.5222,"ARG_OF_PERICENTER":305.9,"MEAN_ANOMALY":54.0758,"EPHEMERIS_TYPE":0,"CLASSIFICATION_TYPE":"U","NORAD_CAT_ID":58654,"ELEMENT_SET_NO":999,"REV_AT_EPOCH":1506,"BSTAR":0,"MEAN_MOTION_DOT":1.2e-7,"MEAN_MOTION_DDOT":0},{"OBJECT_NAME":"BEIDOU-3 M26 (C48)","OBJECT_ID":"2023-207B","EPOCH":"2026-03-14T14:12:42.465024","MEAN_MOTION":1.86229709,"ECCENTRICITY":0.00057135,"INCLINATION":55.6721,"RA_OF_ASC_NODE":65.4789,"ARG_OF_PERICENTER":291.4407,"MEAN_ANOMALY":68.5207,"EPHEMERIS_TYPE":0,"CLASSIFICATION_TYPE":"U","NORAD_CAT_ID":58655,"ELEMENT_SET_NO":999,"REV_AT_EPOCH":1506,"BSTAR":0,"MEAN_MOTION_DOT":1.6e-7,"MEAN_MOTION_DDOT":0}]
